PROBA-1                 
1 26958U 01049B   26155.19293514  .00001907  00000+0  12618-3 0  9994
2 26958  97.9595 163.2727 0055404 165.1076 195.1798 15.07437889341660
CUTE-1 (CO-55)          
1 27844U 03031E   26154.54951729  .00000336  00000+0  16425-3 0  9994
2 27844  98.6736 163.2800 0008690 219.4250 140.6297 14.24327019189732
CUBESAT XI-IV (CO-57)   
1 27848U 03031J   26152.00092913  .00000288  00000+0  14576-3 0  9999
2 27848  98.6768 160.4891 0008288 248.3946 111.6350 14.23611465189071
APRIZESAT 4             
1 35684U 09041D   26154.16376698  .00000865  00000+0  10959-3 0  9999
2 35684  98.1413 229.2048 0043448   8.9660 351.2319 14.83859127909283
APRIZESAT 3             
1 35686U 09041F   26155.05815830  .00001620  00000+0  14392-3 0  9991
2 35686  98.2059 307.6550 0063014 109.9419 250.8603 14.96203769914416
PROBA-2                 
1 36037U 09059B   26155.03554733  .00000203  00000+0  57840-4 0  9993
2 36037  98.2448 338.5709 0012450 326.2458  33.7945 14.54856510879614
APRIZESAT 5             
1 37792U 11044E   26155.03580594  .00001314  00000+0  17278-3 0  9997
2 37792  98.2452  87.7041 0053313  46.1656 314.3944 14.81045424796845
APRIZESAT 6             
1 37793U 11044F   26154.66519513  .00000834  00000+0  12461-3 0  9994
2 37793  98.2373  64.8884 0044159 128.0800 296.4477 14.76895152795157
PROBA-V                 
1 39159U 13021A   26154.55418208  .00000074  00000+0  50465-4 0  9999
2 39159  98.3577 133.8344 0004486 157.0674 203.0707 14.23593894679173
APRIZESAT 7             
1 39416U 13066A   26154.46842510  .00001374  00000+0  14142-3 0  9996
2 39416  97.7702 107.8862 0034277 256.3956 103.3444 14.91532678679184
APRIZESAT 8             
1 39425U 13066K   26155.09268802  .00001269  00000+0  14319-3 0  9991
2 39425  97.8216 102.7439 0045204 330.7670  29.1018 14.87624717677722
BUGSAT-1 (TITA)         
1 40014U 14033E   26155.16121034  .00006465  00000+0  34286-3 0  9993
2 40014  98.0425 246.9496 0027016 223.3151 136.5957 15.15438949653865
SAUDISAT 4              
1 40016U 14033G   26155.20150748  .00000974  00000+0  13468-3 0  9992
2 40016  97.7569 301.7869 0046127 114.9486 245.6529 14.79525826644155
APRIZESAT 9             
1 40018U 14033J   26154.29329893  .00000722  00000+0  11360-3 0  9991
2 40018  97.9044 287.8329 0064878 244.4445 115.0047 14.74195339641518
APRIZESAT 10            
1 40019U 14033K   26154.58919539  .00000493  00000+0  85308-4 0  9995
2 40019  97.9634 281.8532 0077837 317.9677  41.5573 14.70870307640254
TECHDEMOSAT-1 (TDS-1)   
1 40076U 14037H   26154.53647005  .00009479  00000+0  53972-3 0  9997
2 40076  98.3810 145.3987 0005072 327.0999  32.9913 15.13072942646162
TECHNOSAT               
1 42829U 17042E   26155.01759484  .00003132  00000+0  22481-3 0  9994
2 42829  97.4274 313.1793 0018985 135.2527 225.0236 15.04875232484725
FLYING LAPTOP           
1 42831U 17042G   26155.18690075  .00003346  00000+0  26533-3 0  9994
2 42831  97.4640 311.2247 0018771 164.3278 195.8532 15.01054596484505
HAWK-A                  
1 43765U 18099H   26155.02433535  .00007565  00000+0  30587-3 0  9994
2 43765  97.3914 207.4326 0033937 334.2465  25.7081 15.24478478411094
HAWK-B                  
1 43794U 18099AN  26154.96451795  .00007083  00000+0  30302-3 0  9996
2 43794  97.3965 206.8161 0031603 353.0107   7.0685 15.22670886411023
HAWK-C                  
1 43799U 18099AT  26154.11366249  .00008327  00000+0  30156-3 0  9996
2 43799  97.3893 207.3775 0039670 337.4427  22.5066 15.27890589411763
SALSAT                  
1 46495U 20068K   26154.99736176  .00008555  00000+0  30076-3 0  9991
2 46495  97.8850 157.2614 0009364 359.9507   0.1729 15.29597840313346
HAWK-2C                 
1 47502U 21006CT  26155.04573344  .00006994  00000+0  21156-3 0  9991
2 47502  97.2278 199.6187 0005317 238.3141 121.7585 15.34497700297483
HAWK-2A                 
1 47505U 21006CW  26155.04835545  .00007240  00000+0  21882-3 0  9999
2 47505  97.2323 200.2913 0004814 242.9953 117.0799 15.34513271297483
HAWK-2B                 
1 47508U 21006CZ  26155.04455343  .00007897  00000+0  23792-3 0  9996
2 47508  97.2190 198.6404 0005322 239.8532 120.2184 15.34578655297487
HAWK-3B                 
1 48931U 21059BE  26155.05874359  .00044288  00000+0  39341-3 0  9990
2 48931  97.6667 350.5362 0004323  29.2710 330.8792 15.68415327275799
HAWK-3C                 
1 48948U 21059BX  26155.05843802  .00043475  00000+0  38607-3 0  9998
2 48948  97.6787 356.1984 0004767  31.1010 329.0532 15.68423304275795
HAWK-3A                 
1 48957U 21059CG  26155.05833196  .00045806  00000+0  40662-3 0  9997
2 48957  97.6733 353.4144 0004605  31.8839 328.2699 15.68423010275790
HAWK-5C                 
1 52754U 22057Y   26153.85167066  .00020406  00000+0  35454-3 0  9990
2 52754  97.6583 312.6023 0005529 125.0244 235.1527 15.50847845224122
HAWK-5B                 
1 52756U 22057AA  26154.23865968  .00021506  00000+0  37323-3 0  9990
2 52756  97.6591 311.3622 0005999 116.1777 244.0092 15.50865178224188
